NORAD_CAT_ID,OBJECT_NAME,OBJECT_TYPE,EPOCH,MEAN_MOTION,ECCENTRICITY,INCLINATION,RA_OF_ASC_NODE,ARG_OF_PERICENTER,MEAN_ANOMALY,BSTAR,MEAN_MOTION_DOT,MEAN_MOTION_DDOT,TLE_LINE0,TLE_LINE1,TLE_LINE2,SEMIMAJOR_AXIS,PERIOD,APOGEE,PERIGEE,DECAYED
56491.0,STARLINK-5842,PAYLOAD,2023-08-10 09:38:17,15.6993071,0.000365,69.9986,347.531,268.5489,91.5288,2.1423e-05,2.365e-05,0.0,0 STARLINK-5842,1 56491U 23064AV  23222.40158911  .00002365  00000-0  21423-4 0  9992,2 56491  69.9986 347.5310 0003650 268.5489  91.5288 15.69930710 14765,6737.232,91.724,361.556,356.638,0.0
56491.0,STARLINK-5842,PAYLOAD,2023-08-11 10:06:20,15.69912892,0.0003362,69.9981,344.6639,263.8312,96.2501,1.9998e-05,2.191e-05,0.0,0 STARLINK-5842,1 56491U 23064AV  23223.42106627  .00002191  00000-0  19998-4 0  9993,2 56491  69.9981 344.6639 0003362 263.8312  96.2501 15.69912892 14924,6737.283,91.725,361.413,356.883,0.0
56491.0,STARLINK-5842,PAYLOAD,2023-08-12 10:34:22,15.69925474,0.0003446,69.9983,341.7962,266.1013,93.9789,-8.751e-06,-1.265e-05,0.0,0 STARLINK-5842,1 56491U 23064AV  23224.44053329 -.00001265  00000-0 -87510-5 0  9995,2 56491  69.9983 341.7962 0003446 266.1013  93.9789 15.69925474 15080,6737.247,91.724,361.434,356.791,0.0
56491.0,STARLINK-5842,PAYLOAD,2023-08-12 18:13:07,15.69931979,0.0003507,69.9976,340.9008,269.2434,90.836,2.9007e-06,1.36e-06,0.0,0 STARLINK-5842,1 56491U 23064AV  23224.75910970  .00000136  00000-0  29007-5 0  9994,2 56491  69.9976 340.9008 0003507 269.2434  90.8360 15.69931979 15137,6737.229,91.724,361.456,356.731,0.0
56491.0,STARLINK-5842,PAYLOAD,2023-08-13 07:58:48,15.69976981,0.0004424,69.9993,339.29,269.7488,90.3201,6.4935e-05,7.62e-05,0.0,0 STARLINK-5842,1 56491U 23064AV  23225.33250450  .00007620  00000-0  64935-4 0  9992,2 56491  69.9993 339.2900 0004424 269.7488  90.3201 15.69976981 15222,6737.1,91.721,361.945,355.984,0.0
56491.0,STARLINK-5842,PAYLOAD,2023-08-13 17:09:24,15.69909856,0.0003225,69.9986,338.2148,272.1095,87.9732,-1.348e-05,-1.832e-05,0.0,0 STARLINK-5842,1 56491U 23064AV  23225.71486201 -.00001832  00000-0 -13480-4 0  9999,2 56491  69.9986 338.2148 0003225 272.1095  87.9732 15.69909856 15281,6737.292,91.725,361.33,356.984,0.0
56491.0,STARLINK-5842,PAYLOAD,2023-08-14 00:48:10,15.69899393,0.0003468,69.9993,337.3187,269.3314,90.7484,-2.519e-05,-3.237e-05,0.0,0 STARLINK-5842,1 56491U 23064AV  23226.03345620 -.00003237  00000-0 -25190-4 0  9996,2 56491  69.9993 337.3187 0003468 269.3314  90.7484 15.69899393 15339,6737.322,91.726,361.523,356.85,0.0
56491.0,STARLINK-5842,PAYLOAD,2023-08-14 09:58:41,15.69902839,0.0003723,69.9985,336.2443,268.8555,91.2214,-1.5522e-05,-2.077e-05,0.0,0 STARLINK-5842,1 56491U 23064AV  23226.41575584 -.00002077  00000-0 -15522-4 0  9991,2 56491  69.9985 336.2443 0003723 268.8555  91.2214 15.69902839 15391,6737.312,91.725,361.685,356.669,0.0
56491.0,STARLINK-5842,PAYLOAD,2023-08-14 19:09:11,15.69926376,0.0003392,69.997,335.1696,264.4909,95.5899,-3.1979e-05,-4.057e-05,0.0,0 STARLINK-5842,1 56491U 23064AV  23226.79804579 -.00004057  00000-0 -31979-4 0  9995,2 56491  69.9970 335.1696 0003392 264.4909  95.5899 15.69926376 15455,6737.245,91.724,361.395,356.824,0.0
56491.0,STARLINK-5842,PAYLOAD,2023-08-15 10:26:42,15.69902722,0.0003238,69.9985,333.3782,269.2403,90.8421,2.35e-05,2.611e-05,0.0,0 STARLINK-5842,1 56491U 23064AV  23227.43521461  .00002611  00000-0  23500-4 0  9996,2 56491  69.9985 333.3782 0003238 269.2403  90.8421 15.69902722 15557,6737.312,91.725,361.359,356.996,0.0
56491.0,STARLINK-5842,PAYLOAD,2023-08-16 00:12:28,15.69909059,0.0003292,69.9991,331.7656,267.9067,92.1752,4.2057e-05,4.844e-05,0.0,0 STARLINK-5842,1 56491U 23064AV  23228.00866472  .00004844  00000-0  42057-4 0  9992,2 56491  69.9991 331.7656 0003292 267.9067  92.1752 15.69909059 15649,6737.294,91.725,361.377,356.941,0.0
56491.0,STARLINK-5842,PAYLOAD,2023-08-17 09:51:01,15.69926877,0.0003082,70.0004,327.8237,269.6262,90.458,1.7349e-05,1.874e-05,0.0,0 STARLINK-5842,1 56491U 23064AV  23229.41043669  .00001874  00000-0  17349-4 0  9999,2 56491  70.0004 327.8237 0003082 269.6262  90.4580 15.69926877 15862,6737.243,91.724,361.185,357.032,0.0
56491.0,STARLINK-5842,PAYLOAD,2023-08-18 08:47:18,15.69917984,0.0003159,69.9999,325.1366,265.5389,94.5446,6.9186e-06,6.19e-06,0.0,0 STARLINK-5842,1 56491U 23064AV  23230.36618969  .00000619  00000-0  69186-5 0  9999,2 56491  69.9999 325.1366 0003159 265.5389  94.5446 15.69917984 16019,6737.269,91.725,361.262,357.005,0.0
56491.0,STARLINK-5842,PAYLOAD,2023-08-19 00:04:49,15.69933366,0.0003223,69.9961,323.3438,264.3126,95.7703,7.6463e-06,7.07e-06,0.0,0 STARLINK-5842,1 56491U 23064AV  23231.00335210  .00000707  00000-0  76463-5 0  9990,2 56491  69.9961 323.3438 0003223 264.3126  95.7703 15.69933366 16118,6737.225,91.724,361.261,356.918,0.0
56491.0,STARLINK-5842,PAYLOAD,2023-08-19 09:15:20,15.6992639,0.0002946,69.9965,322.2682,260.9289,99.1574,1.0555e-06,-8.6e-07,0.0,0 STARLINK-5842,1 56491U 23064AV  23231.38565679 -.00000086  00000-0  10555-5 0  9996,2 56491  69.9965 322.2682 0002946 260.9289  99.1574 15.69926390 16173,6737.245,91.724,361.094,357.125,0.0
56491.0,STARLINK-5842,PAYLOAD,2023-08-20 09:43:22,15.69927785,0.0003437,69.9996,319.4035,264.8673,95.2131,3.5698e-05,4.082e-05,0.0,0 STARLINK-5842,1 56491U 23064AV  23232.40512254  .00004082  00000-0  35698-4 0  9994,2 56491  69.9996 319.4035 0003437 264.8673  95.2131 15.69927785 16336,6737.241,91.724,361.421,356.79,0.0
56491.0,STARLINK-5842,PAYLOAD,2023-08-20 23:29:09,15.69918279,0.0003202,70.0001,317.7918,268.1811,91.9018,1.8078e-05,1.961e-05,0.0,0 STARLINK-5842,1 56491U 23064AV  23232.97857805  .00001961  00000-0  18078-4 0  9996,2 56491  70.0001 317.7918 0003202 268.1811  91.9018 15.69918279 16423,6737.268,91.725,361.29,356.976,0.0
56491.0,STARLINK-5842,PAYLOAD,2023-08-22 04:32:25,15.69933873,0.000263,69.9983,314.3872,252.5607,107.5301,8.7989e-06,8.46e-06,0.0,0 STARLINK-5842,1 56491U 23064AV  23234.18918902  .00000846  00000-0  87989-5 0  9996,2 56491  69.9983 314.3872 0002630 252.5607 107.5301 15.69933873 16612,6737.223,91.724,360.86,357.316,0.0
56491.0,STARLINK-5842,PAYLOAD,2023-08-22 09:07:41,15.69926336,0.0003349,69.9979,313.85,276.1695,83.9119,1.4978e-06,-3.3e-07,0.0,0 STARLINK-5842,1 56491U 23064AV  23234.38034522 -.00000033  00000-0  14978-5 0  9992,2 56491  69.9979 313.8500 0003349 276.1695  83.9119 15.69926336 16649,6737.245,91.724,361.366,356.853,0.0
56491.0,STARLINK-5842,PAYLOAD,2023-08-23 12:39:14,15.69921778,0.0003465,69.9976,310.6261,272.587,87.4929,1.4823e-05,1.57e-05,0.0,0 STARLINK-5842,1 56491U 23064AV  23235.52724835  .00001570  00000-0  14823-4 0  9996,2 56491  69.9976 310.6261 0003465 272.5870  87.4929 15.69921778 16822,6737.258,91.724,361.457,356.788,0.0
56491.0,STARLINK-5842,PAYLOAD,2023-08-24 08:32:00,15.69922632,0.000363,69.9974,308.2965,280.5424,79.5363,1.9012e-05,2.074e-05,0.0,0 STARLINK-5842,1 56491U 23064AV  23236.35556376  .00002074  00000-0  19012-4 0  9996,2 56491  69.9974 308.2965 0003630 280.5424  79.5363 15.69922632 16602,6737.255,91.724,361.566,356.675,0.0
56491.0,STARLINK-5842,PAYLOAD,2023-08-25 07:28:17,15.69923105,0.0003269,69.9974,305.6093,268.3982,91.6839,5.0384e-06,3.93e-06,0.0,0 STARLINK-5842,1 56491U 23064AV  23237.31131466  .00000393  00000-0  50384-5 0  9992,2 56491  69.9974 305.6093 0003269 268.3982  91.6839 15.69923105 17101,6737.254,91.724,361.321,356.917,0.0
56491.0,STARLINK-5842,PAYLOAD,2023-08-25 13:35:17,15.69924995,0.0003154,69.9981,304.8938,268.2179,91.8656,8.4253e-06,8.01e-06,0.0,0 STARLINK-5842,1 56491U 23064AV  23237.56617978  .00000801  00000-0  84253-5 0  9992,2 56491  69.9981 304.8938 0003154 268.2179  91.8656 15.69924995 16799,6737.249,91.724,361.239,356.989,0.0
56491.0,STARLINK-5842,PAYLOAD,2023-08-26 07:56:19,15.69922422,0.0002946,69.9983,302.7445,262.9315,97.1546,8.2436e-06,7.79e-06,0.0,0 STARLINK-5842,1 56491U 23064AV  23238.33078194  .00000779  00000-0  82436-5 0  9994,2 56491  69.9983 302.7445 0002946 262.9315  97.1546 15.69922422 17265,6737.256,91.724,361.106,357.136,0.0
56491.0,STARLINK-5842,PAYLOAD,2023-08-27 05:20:51,15.69923917,0.000293,69.9981,300.2366,263.2528,96.8334,9.2778e-06,9.03e-06,0.0,0 STARLINK-5842,1 56491U 23064AV  23239.22281547  .00000903  00000-0  92778-5 0  9990,2 56491  69.9981 300.2366 0002930 263.2528  96.8334 15.69923917 17059,6737.252,91.724,361.091,357.143,0.0
56491.0,STARLINK-5842,PAYLOAD,2023-08-27 12:59:37,15.69922136,0.0003001,69.998,299.3409,264.7438,95.3416,5.9274e-06,5e-06,0.0,0 STARLINK-5842,1 56491U 23064AV  23239.54140104  .00000500  00000-0  59274-5 0  9995,2 56491  69.9980 299.3409 0003001 264.7438  95.3416 15.69922136 17451,6737.257,91.724,361.144,357.1,0.0
56491.0,STARLINK-5842,PAYLOAD,2023-08-28 10:23:24,15.70511957,0.000508,69.9979,296.8314,240.9334,119.1353,0.00064463,0.00079999,0.0,0 STARLINK-5842,1 56491U 23064AV  23240.43291960  .00079999  00000-0  64463-3 0  9994,2 56491  69.9979 296.8314 0005080 240.9334 119.1353 15.70511957 17593,6735.57,91.69,360.857,354.013,0.0
56491.0,STARLINK-5842,PAYLOAD,2023-08-28 21:06:24,15.69925514,0.0003397,69.997,295.5785,270.3337,89.747,1.2055e-05,1.237e-05,0.0,0 STARLINK-5842,1 56491U 23064AV  23240.87944782  .00001237  00000-0  12055-4 0  9990,2 56491  69.9970 295.5785 0003397 270.3337  89.7470 15.69925514 17667,6737.247,91.724,361.401,356.823,0.0
56491.0,STARLINK-5842,PAYLOAD,2023-08-29 06:16:55,15.69918107,0.0003366,69.9968,294.5038,270.302,89.779,3.1785e-06,1.69e-06,0.0,0 STARLINK-5842,1 56491U 23064AV  23241.26175506  .00000169  00000-0  31785-5 0  9999,2 56491  69.9968 294.5038 0003366 270.3020  89.7790 15.69918107 17721,6737.268,91.725,361.401,356.866,0.0
56491.0,STARLINK-5842,PAYLOAD,2023-08-29 12:23:56,15.69919726,0.000337,69.9967,293.7872,270.2736,89.8073,4.6137e-06,3.42e-06,0.0,0 STARLINK-5842,1 56491U 23064AV  23241.51662126  .00000342  00000-0  46137-5 0  9996,2 56491  69.9967 293.7872 0003370 270.2736  89.8073 15.69919726 17414,6737.264,91.724,361.399,356.858,0.0
